{"fetched_at":"2026-03-29T16:36:15Z","count":15609,"tles":[{"name":"STARLINK-35779","line1":"1 67047U 25294T   26087.87077088  .00025824  00000+0  94454-3 0  9993","line2":"2 67047  42.9994 289.6718 0002957 275.1936  84.8578 15.27581861 17732","category":"Starlink"}]}